NORAD_CAT_ID,OBJECT_NAME,OBJECT_TYPE,EPOCH,MEAN_MOTION,ECCENTRICITY,INCLINATION,RA_OF_ASC_NODE,ARG_OF_PERICENTER,MEAN_ANOMALY,BSTAR,MEAN_MOTION_DOT,MEAN_MOTION_DDOT,TLE_LINE0,TLE_LINE1,TLE_LINE2,SEMIMAJOR_AXIS,PERIOD,APOGEE,PERIGEE,DECAYED
49746.0,STARLINK-3233,PAYLOAD,2023-06-22 07:07:21,15.08839617,0.0001104,53.2151,279.6603,89.4677,270.6442,6.7225e-05,7.82e-06,0.0,0 STARLINK-3233,1 49746U 21115Y   23173.29677642  .00000782  00000-0  67225-4 0  9992,2 49746  53.2151 279.6603 0001104  89.4677 270.6442 15.08839617 86972,6917.882,95.438,540.51,538.983,0.0
49746.0,STARLINK-3233,PAYLOAD,2023-06-23 11:44:18,15.08837776,9.72e-05,53.2154,274.3078,81.4541,278.6561,7.714e-05,9.4e-06,0.0,0 STARLINK-3233,1 49746U 21115Y   23174.48909932  .00000940  00000-0  77140-4 0  9997,2 49746  53.2154 274.3078 0000972  81.4541 278.6561 15.08837776 87152,6917.887,95.438,540.425,539.08,0.0
49746.0,STARLINK-3233,PAYLOAD,2023-06-23 16:30:27,15.08844166,0.0001045,53.2158,273.4146,89.7081,270.4031,0.00015411,2.166e-05,0.0,0 STARLINK-3233,1 49746U 21115Y   23174.68781608  .00002166  00000-0  15411-3 0  9991,2 49746  53.2158 273.4146 0001045  89.7081 270.4031 15.08844166 87180,6917.868,95.437,540.456,539.01,0.0
49746.0,STARLINK-3233,PAYLOAD,2023-06-24 06:48:55,15.08837163,9.53e-05,53.216,270.7391,84.1911,275.919,0.00010755,1.424e-05,0.0,0 STARLINK-3233,1 49746U 21115Y   23175.28398037  .00001424  00000-0  10755-3 0  9990,2 49746  53.2160 270.7391 0000953  84.1911 275.9190 15.08837163 87278,6917.889,95.438,540.413,539.095,0.0
49746.0,STARLINK-3233,PAYLOAD,2023-06-25 09:50:28,15.08845238,0.0001042,53.2156,265.6843,78.7024,281.4085,0.00018385,2.64e-05,0.0,0 STARLINK-3233,1 49746U 21115Y   23176.41005647  .00002640  00000-0  18385-3 0  9996,2 49746  53.2156 265.6843 0001042  78.7024 281.4085 15.08845238 87448,6917.864,95.437,540.45,539.009,0.0
49746.0,STARLINK-3233,PAYLOAD,2023-06-25 22:33:33,15.08834984,6.16e-05,53.2152,263.3047,97.8032,262.303,-0.00011528,-2.121e-05,0.0,0 STARLINK-3233,1 49746U 21115Y   23176.93997666 -.00002121  00000-0 -11528-3 0  9992,2 49746  53.2152 263.3047 0000616  97.8032 262.3030 15.08834984 87525,6917.896,95.438,540.187,539.335,0.0
49746.0,STARLINK-3233,PAYLOAD,2023-06-27 11:07:26,15.0884339,9.82e-05,53.2154,256.4651,97.1363,262.974,0.00026259,3.894e-05,0.0,0 STARLINK-3233,1 49746U 21115Y   23178.46349988  .00003894  00000-0  26259-3 0  9993,2 49746  53.2154 256.4651 0000982  97.1363 262.9740 15.08843390 87757,6917.87,95.437,540.414,539.056,0.0
49746.0,STARLINK-3233,PAYLOAD,2023-06-28 04:36:41,15.0884046,9.68e-05,53.2151,253.1941,96.6273,263.483,0.00015545,2.187e-05,0.0,0 STARLINK-3233,1 49746U 21115Y   23179.19214167  .00002187  00000-0  15545-3 0  9994,2 49746  53.2151 253.1941 0000968  96.6273 263.4830 15.08840460 87861,6917.879,95.438,540.414,539.074,0.0
49746.0,STARLINK-3233,PAYLOAD,2023-06-29 04:27:28,15.08838592,9.93e-05,53.2142,248.7321,90.6942,269.4163,8.3441e-05,1.04e-05,0.0,0 STARLINK-3233,1 49746U 21115Y   23180.18574501  .00001040  00000-0  83441-4 0  9994,2 49746  53.2142 248.7321 0000993  90.6942 269.4163 15.08838592 88014,6917.885,95.438,540.437,539.063,0.0
49746.0,STARLINK-3233,PAYLOAD,2023-06-30 13:50:33,15.08848926,9.31e-05,53.2146,242.4877,85.5684,274.5414,0.00018896,2.722e-05,0.0,0 STARLINK-3233,1 49746U 21115Y   23181.57677918  .00002722  00000-0  18896-3 0  9993,2 49746  53.2146 242.4877 0000931  85.5684 274.5414 15.08848926 88224,6917.853,95.437,540.362,539.074,0.0
49746.0,STARLINK-3233,PAYLOAD,2023-07-01 08:55:11,15.08836905,8.62e-05,53.2145,238.9194,91.0852,269.0238,5.6838e-05,6.17e-06,0.0,0 STARLINK-3233,1 49746U 21115Y   23182.37166613  .00000617  00000-0  56838-4 0  9997,2 49746  53.2145 238.9194 0000862  91.0852 269.0238 15.08836905 88347,6917.89,95.438,540.351,539.159,0.0
49746.0,STARLINK-3233,PAYLOAD,2023-07-02 10:21:21,15.08843632,8.66e-05,53.2146,234.1618,87.0239,273.0852,9.2379e-05,1.183e-05,0.0,0 STARLINK-3233,1 49746U 21115Y   23183.43150348  .00001183  00000-0  92379-4 0  9992,2 49746  53.2146 234.1618 0000866  87.0239 273.0852 15.08843632 88505,6917.869,95.437,540.333,539.135,0.0
49746.0,STARLINK-3233,PAYLOAD,2023-07-03 10:12:09,15.08840231,9.23e-05,53.2146,229.7019,90.0577,270.0521,0.00011643,1.566e-05,0.0,0 STARLINK-3233,1 49746U 21115Y   23184.42510552  .00001566  00000-0  11643-3 0  9998,2 49746  53.2146 229.7019 0000923  90.0577 270.0521 15.08840231 88651,6917.88,95.438,540.383,539.106,0.0
49746.0,STARLINK-3233,PAYLOAD,2023-07-04 13:13:42,15.08842077,9.31e-05,53.2154,224.6463,88.6605,271.4494,7.393e-05,8.89e-06,0.0,0 STARLINK-3233,1 49746U 21115Y   23185.55118699  .00000889  00000-0  73930-4 0  9994,2 49746  53.2154 224.6463 0000931  88.6605 271.4494 15.08842077 88824,6917.874,95.437,540.383,539.095,0.0
49746.0,STARLINK-3233,PAYLOAD,2023-07-05 14:39:52,15.08841849,9.07e-05,53.2152,219.8878,88.3282,271.7814,7.1583e-05,8.52e-06,0.0,0 STARLINK-3233,1 49746U 21115Y   23186.61102720  .00000852  00000-0  71583-4 0  9992,2 49746  53.2152 219.8878 0000907  88.3282 271.7814 15.08841849 88981,6917.875,95.437,540.367,539.112,0.0
49746.0,STARLINK-3233,PAYLOAD,2023-07-07 01:38:21,15.08842698,9.19e-05,53.2154,213.3454,86.6009,273.5088,9.8149e-05,1.275e-05,0.0,0 STARLINK-3233,1 49746U 21115Y   23188.06830742  .00001275  00000-0  98149-4 0  9992,2 49746  53.2154 213.3454 0000919  86.6009 273.5088 15.08842698 89205,6917.872,95.437,540.373,539.101,0.0
49746.0,STARLINK-3233,PAYLOAD,2023-07-07 23:53:45,15.08839298,9.27e-05,53.2151,209.1823,85.4452,274.6646,7.0013e-05,8.27e-06,0.0,0 STARLINK-3233,1 49746U 21115Y   23188.99566932  .00000827  00000-0  70013-4 0  9993,2 49746  53.2151 209.1823 0000927  85.4452 274.6646 15.08839298 89342,6917.883,95.438,540.389,539.106,0.0
49746.0,STARLINK-3233,PAYLOAD,2023-07-09 01:19:56,15.08840335,9.05e-05,53.2149,204.4241,87.9155,272.194,2.0939e-05,4.6e-07,0.0,0 STARLINK-3233,1 49746U 21115Y   23190.05550975  .00000046  00000-0  20939-4 0  9998,2 49746  53.2149 204.4241 0000905  87.9155 272.1940 15.08840335 89506,6917.879,95.438,540.37,539.118,0.0
49746.0,STARLINK-3233,PAYLOAD,2023-07-10 10:43:01,15.08838619,9.29e-05,53.2147,198.1799,82.4406,277.6692,5.4777e-05,5.84e-06,0.0,0 STARLINK-3233,1 49746U 21115Y   23191.44655060  .00000584  00000-0  54777-4 0  9997,2 49746  53.2147 198.1799 0000929  82.4406 277.6692 15.08838619 89715,6917.885,95.438,540.392,539.107,0.0
49746.0,STARLINK-3233,PAYLOAD,2023-07-11 16:55:21,15.08838651,9.54e-05,53.2148,192.5294,79.1623,280.9477,6.6188e-05,7.66e-06,0.0,0 STARLINK-3233,1 49746U 21115Y   23192.70511309  .00000766  00000-0  66188-4 0  9995,2 49746  53.2148 192.5294 0000954  79.1623 280.9477 15.08838651 89901,6917.885,95.438,540.409,539.09,0.0
49746.0,STARLINK-3233,PAYLOAD,2023-07-12 10:24:35,15.08846102,9.64e-05,53.2148,189.2582,78.7228,281.3872,0.00011137,1.485e-05,0.0,0 STARLINK-3233,1 49746U 21115Y   23193.43374720  .00001485  00000-0  11137-3 0  9992,2 49746  53.2148 189.2582 0000964  78.7228 281.3872 15.08846102 90019,6917.862,95.437,540.394,539.06,0.0
49746.0,STARLINK-3233,PAYLOAD,2023-07-13 16:36:56,15.08837704,0.0001019,53.2154,183.6066,91.7604,268.3505,3.6531e-05,2.94e-06,0.0,0 STARLINK-3233,1 49746U 21115Y   23194.69231621  .00000294  00000-0  36531-4 0  9996,2 49746  53.2154 183.6066 0001019  91.7604 268.3505 15.08837704 90203,6917.887,95.438,540.457,539.047,0.0
49746.0,STARLINK-3233,PAYLOAD,2023-07-15 05:10:47,15.0884375,0.0001006,53.215,176.7685,86.9383,273.1725,0.00012159,1.648e-05,0.0,0 STARLINK-3233,1 49746U 21115Y   23196.21583008  .00001648  00000-0  12159-3 0  9998,2 49746  53.2150 176.7685 0001006  86.9383 273.1725 15.08843750 90436,6917.869,95.437,540.43,539.038,0.0
49746.0,STARLINK-3233,PAYLOAD,2023-07-16 01:50:49,15.08832103,0.0001105,53.2142,172.9031,86.7902,273.3217,-1.071e-05,-4.58e-06,0.0,0 STARLINK-3233,1 49746U 21115Y   23197.07696183 -.00000458  00000-0 -10710-4 0  9994,2 49746  53.2142 172.9031 0001105  86.7902 273.3217 15.08832103 90567,6917.905,95.438,540.534,539.005,0.0
49746.0,STARLINK-3233,PAYLOAD,2023-07-17 08:03:08,15.08839823,0.0001191,53.2159,167.2534,92.5963,267.5166,1.0105e-05,-1.27e-06,0.0,0 STARLINK-3233,1 49746U 21115Y   23198.33551849 -.00000127  00000-0  10105-4 0  9993,2 49746  53.2159 167.2534 0001191  92.5963 267.5166 15.08839823 90752,6917.881,95.438,540.57,538.922,0.0
49746.0,STARLINK-3233,PAYLOAD,2023-07-18 07:53:55,15.08847644,0.0001116,53.2159,162.7922,89.1578,270.9542,0.00015962,2.254e-05,0.0,0 STARLINK-3233,1 49746U 21115Y   23199.32910955  .00002254  00000-0  15962-3 0  9997,2 49746  53.2159 162.7922 0001116  89.1578 270.9542 15.08847644 90907,6917.857,95.437,540.494,538.95,0.0
49746.0,STARLINK-3233,PAYLOAD,2023-07-18 23:47:47,15.08833364,0.0001284,53.2164,159.8182,93.4885,266.6254,4.9376e-06,-2.09e-06,0.0,0 STARLINK-3233,1 49746U 21115Y   23199.99152501 -.00000209  00000-0  49376-5 0  9992,2 49746  53.2164 159.8182 0001284  93.4885 266.6254 15.08833364 91001,6917.901,95.438,540.654,538.877,0.0
49746.0,STARLINK-3233,PAYLOAD,2023-07-20 06:00:07,15.08843107,0.0001076,53.2159,154.1681,80.4778,279.6336,-1.5846e-05,-5.4e-06,0.0,0 STARLINK-3233,1 49746U 21115Y   23201.25008344 -.00000540  00000-0 -15846-4 0  9993,2 49746  53.2159 154.1681 0001076  80.4778 279.6336 15.08843107 91194,6917.871,95.437,540.48,538.992,0.0
49746.0,STARLINK-3233,PAYLOAD,2023-07-23 05:32:27,15.0884576,0.0001206,53.216,140.7865,101.9604,258.1523,9.2625e-05,1.187e-05,0.0,0 STARLINK-3233,1 49746U 21115Y   23204.23087923  .00001187  00000-0  92625-4 0  9990,2 49746  53.2160 140.7865 0001206 101.9604 258.1523 15.08845760 90537,6917.863,95.437,540.562,538.893,0.0
49746.0,STARLINK-3233,PAYLOAD,2023-07-25 03:38:41,15.08827916,0.00017,53.2188,132.1569,135.0552,225.0578,-0.00018245,-3.19e-05,0.0,0 STARLINK-3233,1 49746U 21115Y   23206.15186344 -.00003190  00000-0 -18245-3 0  9993,2 49746  53.2188 132.1569 0001700 135.0552 225.0578 15.08827916 90820,6917.917,95.438,540.958,538.606,0.0
